OBJECT_NAME,OBJECT_ID,EPOCH,MEAN_MOTION,ECCENTRICITY,INCLINATION,RA_OF_ASC_NODE,ARG_OF_PERICENTER,MEAN_ANOMALY,EPHEMERIS_TYPE,CLASSIFICATION_TYPE,NORAD_CAT_ID,ELEMENT_SET_NO,REV_AT_EPOCH,BSTAR,MEAN_MOTION_DOT,MEAN_MOTION_DDOT
SL-14 R/B,1990-018B,2026-06-11T09:47:48.706368,14.82212239,.0017121,82.5207,135.5092,139.4645,220.7848,0,U,20511,999,93646,.37752E-4,.325E-5,0
HST,1990-037B,2026-06-11T05:02:46.985856,15.30680019,.00019704,28.4707,121.4212,81.6673,278.4146,0,U,20580,999,78765,.1569585E-3,.5021E-4,0
SL-16 R/B,1990-046B,2026-06-11T13:48:54.902016,14.15023715,.0013816,70.9991,100.7329,170.1513,189.9883,0,U,20625,999,86167,.17355E-3,.289E-5,0
COSMOS 2084,1990-055A,2026-06-11T16:24:17.340192,15.06094031,.0005481,62.7911,14.8759,269.0881,90.9592,0,U,20663,999,95047,.13908E-3,.1841E-4,0
SL-6 R/B(2),1990-055D,2026-06-11T17:31:38.887680,15.03985015,.0039765,62.7826,293.9452,4.4036,355.7405,0,U,20666,999,95233,.11433E-3,.1405E-4,0
SL-8 R/B,1990-078B,2026-06-11T11:53:20.590080,14.92097617,.0352191,82.9014,166.7865,57.6230,305.8559,0,U,20775,999,82327,.54013E-3,.19183E-3,0
SL-8 R/B,1991-006B,2026-06-11T08:03:23.781888,13.77505484,.0023443,82.9424,100.3866,130.1448,343.6788,0,U,21088,999,77696,.1843E-4,.34E-6,0
OKEAN-3,1991-039A,2026-06-11T16:30:28.002240,15.05299375,.0014479,82.5159,245.7137,18.0260,342.1477,0,U,21397,999,87917,.12697E-3,.1847E-4,0
COSMOS 2151,1991-042A,2026-06-11T18:59:25.816992,15.00422338,.0013802,82.4960,352.8888,100.1623,260.1159,0,U,21422,999,87730,.10898E-3,.1399E-4,0
SL-14 R/B,1991-042B,2026-06-11T14:47:09.966048,14.81899025,.0015564,82.4924,132.1200,295.0051,64.9547,0,U,21423,999,86698,.39727E-4,.338E-5,0
ERS-1,1991-050A,2026-06-11T16:10:08.982048,14.39513988,.0030723,98.7798,183.2369,284.0402,75.7370,0,U,21574,999,82925,.10113E-3,.27E-5,0
ARIANE 40 R/B,1991-050F,2026-06-11T17:01:52.367232,14.42953843,.0004034,98.1876,211.3396,133.1181,227.0347,0,U,21610,999,83255,.81878E-4,.232E-5,0
INTERCOSMOS 25,1991-086A,2026-06-11T15:56:51.725184,12.12189031,.1484221,82.6056,253.1518,274.3176,69.0307,0,U,21819,999,50807,.88377E-4,.443E-5,0
SL-8 R/B,1992-008B,2026-06-11T14:38:15.925056,13.75975437,.0033535,82.9264,197.9343,230.7167,242.5457,0,U,21876,999,72233,.11337E-3,.125E-5,0
SL-8 R/B,1992-020B,2026-06-11T19:34:11.125056,13.75548297,.003004,82.9306,83.8472,37.1901,16.8640,0,U,21938,999,71407,.19699E-4,.34E-6,0
USA 81,1992-023A,2026-06-11T16:28:20.409312,14.32396758,.0002788,85.0077,77.1822,89.6654,270.4858,0,U,21949,999,10824,.44285E-4,.14E-5,0
COSMOS 2219,1992-076A,2026-06-11T11:03:39.149856,14.14096146,.0016333,71.0575,182.0431,53.5171,306.7454,0,U,22219,999,73163,.82986E-4,.111E-5,0
SL-16 R/B,1992-076B,2026-06-11T19:28:12.566784,14.16871189,.0014547,71.0004,350.1067,305.6397,144.5284,0,U,22220,999,73516,-.34325E-4,-.117E-5,0
COSMOS 2221,1992-080A,2026-06-11T17:21:15.260256,14.96519585,.0012869,82.5031,188.9997,232.2830,127.7226,0,U,22236,999,79485,.10294E-3,.1197E-4,0
SL-16 R/B,1992-093B,2026-06-11T10:44:28.059072,14.15463805,.0004276,71.0199,167.4407,197.4318,162.6659,0,U,22285,999,72642,-.94362E-4,-.232E-5,0
COSMOS 2228,1992-094A,2026-06-11T16:12:49.777632,14.97566769,.0017447,82.5171,147.3220,351.3989,8.6932,0,U,22286,999,79012,.14639E-3,.174E-4,0
SL-16 R/B,1993-016B,2026-06-11T17:02:00.758400,14.15310541,.0010588,71.0081,17.7124,191.2245,168.8643,0,U,22566,999,71547,.15732E-3,.259E-5,0
COSMOS 2242,1993-024A,2026-06-11T11:58:17.851008,14.96886718,.0015927,82.5179,176.9851,355.9076,4.2013,0,U,22626,999,79442,.12406E-3,.1452E-4,0
SL-16 R/B,1993-059B,2026-06-11T11:46:26.659776,14.17246336,.0015064,70.9884,173.3170,63.8399,296.4272,0,U,22803,999,69282,.16294E-3,.281E-5,0
ARIANE 40 R/B,1993-061H,2026-06-11T16:32:06.882720,14.32905589,.0010826,98.4819,229.6601,12.7483,347.3973,0,U,22830,999,70756,.7063E-4,.15E-5,0
COSMOS 2278,1994-023A,2026-06-11T19:13:49.329696,14.14395653,.0010593,71.0547,338.1941,249.3288,110.6700,0,U,23087,999,65811,.18519E-3,.307E-5,0
SL-16 R/B,1994-023B,2026-06-11T14:14:25.694016,14.15021446,.0003135,70.9993,233.6789,191.8566,168.2483,0,U,23088,999,65937,.17905E-3,.299E-5,0
SL-16 R/B,1994-074B,2026-06-11T16:17:43.725984,14.79497698,.0005081,97.6993,189.6293,276.8907,196.5962,0,U,23343,999,70114,.54199E-4,.356E-5,0
SL-16 R/B,1994-077B,2026-06-11T09:31:37.140096,14.15572204,.0002695,70.9805,155.3442,331.6399,28.4576,0,U,23405,999,62949,-.74025E-4,-.193E-5,0
ARIANE 40+ R/B,1995-021B,2026-06-11T17:07:37.179264,14.39830362,.000607,98.4411,232.8675,210.9036,263.1685,0,U,23561,999,63277,.80885E-4,.21E-5,0
SL-16 R/B,1995-058B,2026-06-11T16:35:15.067104,14.15505599,.001351,71.0215,342.8981,327.9857,32.0443,0,U,23705,999,58115,.85287E-4,.119E-5,0
